$$SOE
2461295.500000000, A.D. 2026-Sep-12 00:00:00.0000, -3.158630691794627E+08, -1.224634303315208E+08, -3.320824630215749E+06,
2461302.500000000, A.D. 2026-Sep-19 00:00:00.0000, -3.122581722354960E+08, -1.336377461015649E+08, -2.311516492716603E+06,
2461309.500000000, A.D. 2026-Sep-26 00:00:00.0000, -3.082664681021428E+08, -1.446465182633646E+08, -1.299342452063173E+06,
2461316.500000000, A.D. 2026-Oct-03 00:00:00.0000, -3.038957775382521E+08, -1.554774626598901E+08, -2.855684998917878E+05,
2461323.500000000, A.D. 2026-Oct-10 00:00:00.0000, -2.991542280140450E+08, -1.661186762674546E+08, 7.285563559281826E+05,
2461330.500000000, A.D. 2026-Oct-17 00:00:00.0000, -2.940502360790206E+08, -1.765586375133257E+08, 1.741800841978639E+06,
2461337.500000000, A.D. 2026-Oct-24 00:00:00.0000, -2.885924904811068E+08, -1.867862060477226E+08, 2.752952082805172E+06,
2461344.500000000, A.D. 2026-Oct-31 00:00:00.0000, -2.827899359370811E+08, -1.967906221081205E+08, 3.760816168539450E+06,
2461351.500000000, A.D. 2026-Nov-07 00:00:00.0000, -2.766517572100854E+08, -2.065615054695842E+08, 4.764218607250199E+06,
2461358.500000000, A.D. 2026-Nov-14 00:00:00.0000, -2.701873632844178E+08, -2.160888531574315E+08, 5.762004721685007E+06,
2461365.500000000, A.D. 2026-Nov-21 00:00:00.0000, -2.634063734360249E+08, -2.253630352999785E+08, 6.753040217624769E+06,
2461372.500000000, A.D. 2026-Nov-28 00:00:00.0000, -2.563186061806945E+08, -2.343747921872780E+08, 7.736211774488211E+06,
2461379.500000000, A.D. 2026-Dec-05 00:00:00.0000, -2.489340674652912E+08, -2.431152332488216E+08, 8.710427277482286E+06,
2461386.500000000, A.D. 2026-Dec-12 00:00:00.0000, -2.412629379211848E+08, -2.515758348902486E+08, 9.674615935658425E+06,
2461393.500000000, A.D. 2026-Dec-19 00:00:00.0000, -2.333155610468563E+08, -2.597484372270006E+08, 1.062772846461512E+07,
2461400.500000000, A.D. 2026-Dec-26 00:00:00.0000, -2.251024324377733E+08, -2.676252406237203E+08, 1.156873728044443E+07,
2461407.500000000, A.D. 2027-Jan-02 00:00:00.0000, -2.166341897617941E+08, -2.751988022704973E+08, 1.249663666781992E+07,
2461414.500000000, A.D. 2027-Jan-09 00:00:00.0000, -2.079216033386441E+08, -2.824620328156040E+08, 1.341044291680352E+07,
2461421.500000000, A.D. 2027-Jan-16 00:00:00.0000, -1.989755672652421E+08, -2.894081930827560E+08, 1.430919442969386E+07,
2461428.500000000, A.D. 2027-Jan-23 00:00:00.0000, -1.898070910175931E+08, -2.960308909453478E+08, 1.519195179423784E+07,
2461435.500000000, A.D. 2027-Jan-30 00:00:00.0000, -1.804272913170438E+08, -3.023240784353761E+08, 1.605779780556379E+07,
2461442.500000000, A.D. 2027-Feb-06 00:00:00.0000, -1.708473838111815E+08, -3.082820487749902E+08, 1.690583742890728E+07,
2461449.500000000, A.D. 2027-Feb-13 00:00:00.0000, -1.610786750046581E+08, -3.138994321365494E+08, 1.773519784810546E+07,
2461456.500000000, A.D. 2027-Feb-20 00:00:00.0000, -1.511325567781968E+08, -3.191711909447188E+08, 1.854502875482319E+07,
2461463.500000000, A.D. 2027-Feb-27 00:00:00.0000, -1.410205020744004E+08, -3.240926179554986E+08, 1.933450249049634E+07,
2461470.500000000, A.D. 2027-Mar-06 00:00:00.0000, -1.307540587089051E+08, -3.286593352087870E+08, 2.010281392415278E+07,
2461477.500000000, A.D. 2027-Mar-13 00:00:00.0000, -1.203448428829465E+08, -3.328672918173633E+08, 2.084918038279800E+07,
2461484.500000000, A.D. 2027-Mar-20 00:00:00.0000, -1.098045334976409E+08, -3.367127614340512E+08, 2.157284167101811E+07,
2461491.500000000, A.D. 2027-Mar-27 00:00:00.0000, -9.914486703454308E+07, -3.401923399545037E+08, 2.227306011690640E+07,
2461498.500000000, A.D. 2027-Apr-03 00:00:00.0000, -8.837763276609379E+07, -3.433029435174199E+08, 2.294912062252168E+07,
2461505.500000000, A.D. 2027-Apr-10 00:00:00.0000, -7.751466820554040E+07, -3.460418067977099E+08, 2.360033071694104E+07,
2461512.500000000, A.D. 2027-Apr-17 00:00:00.0000, -6.656785475048558E+07, -3.484064816248668E+08, 2.422602061159104E+07,
2461519.500000000, A.D. 2027-Apr-24 00:00:00.0000, -5.554911341955218E+07, -3.503948360014066E+08, 2.482554324858707E+07,
2461526.500000000, A.D. 2027-May-01 00:00:00.0000, -4.447040036003879E+07, -3.520050535007508E+08, 2.539827431933171E+07,
2461533.500000000, A.D. 2027-May-08 00:00:00.0000, -3.334370179442345E+07, -3.532356323003488E+08, 2.594361228813316E+07,
2461540.500000000, A.D. 2027-May-15 00:00:00.0000, -2.218102987644809E+07, -3.540853828989901E+08, 2.646097863736027E+07,
2461547.500000000, A.D. 2027-May-22 00:00:00.0000, -1.099442099313705E+07, -3.545534271106787E+08, 2.694981826661959E+07,
2461554.500000000, A.D. 2027-May-29 00:00:00.0000, 2.040668716196024E+05, -3.546391998058006E+08, 2.740959961918007E+07,
2461561.500000000, A.D. 2027-Jun-05 00:00:00.0000, 1.140235862364170E+07, -3.543424502726261E+08, 2.783981471212955E+07,
2461568.500000000, A.D. 2027-Jun-12 00:00:00.0000, 2.258836641269870E+07, -3.536632427703320E+08, 2.823997929141958E+07,
2461575.500000000, A.D. 2027-Jun-19 00:00:00.0000, 3.374999354780658E+07, -3.526019572085472E+08, 2.860963306711358E+07,
2461582.500000000, A.D. 2027-Jun-26 00:00:00.0000, 4.487513827711000E+07, -3.511592902120678E+08, 2.894833998275553E+07,
2461589.500000000, A.D. 2027-Jul-03 00:00:00.0000, 5.595169758898447E+07, -3.493362565566158E+08, 2.925568850766772E+07,
2461596.500000000, A.D. 2027-Jul-10 00:00:00.0000, 6.696757109789686E+07, -3.471341909584301E+08, 2.953129194915022E+07,
2461603.500000000, A.D. 2027-Jul-17 00:00:00.0000, 7.791066508140963E+07, -3.445547502482926E+08, 2.977478877790639E+07,
2461610.500000000, A.D. 2027-Jul-24 00:00:00.0000, 8.876889685648367E+07, -3.415999159874347E+08, 2.998584294811654E+07,
2461617.500000000, A.D. 2027-Jul-31 00:00:00.0000, 9.953019993725303E+07, -3.382719972867406E+08, 3.016414419550414E+07,
2461624.500000000, A.D. 2027-Aug-07 00:00:00.0000, 1.101825298021704E+08, -3.345736326741082E+08, 3.030940842784981E+07,
2461631.500000000, A.D. 2027-Aug-14 00:00:00.0000, 1.207138679960933E+08, -3.305077912564930E+08, 3.042137839949809E+07,
2461638.500000000, A.D. 2027-Aug-21 00:00:00.0000, 1.311122252122533E+08, -3.260777765292768E+08, 3.049982433838899E+07,
2461645.500000000, A.D. 2027-Aug-28 00:00:00.0000, 1.413656468138484E+08, -3.212872316171869E+08, 3.054454430933796E+07,
2461652.500000000, A.D. 2027-Sep-04 00:00:00.0000, 1.514622196430915E+08, -3.161401434320987E+08, 3.055536462670767E+07,
2461659.500000000, A.D. 2027-Sep-11 00:00:00.0000, 1.613900787509074E+08, -3.106408463939270E+08, 3.053214039032944E+07,
2461666.500000000, A.D. 2027-Sep-18 00:00:00.0000, 1.711374142093998E+08, -3.047940263465549E+08, 3.047475607884203E+07,
2461673.500000000, A.D. 2027-Sep-25 00:00:00.0000, 1.806924782654319E+08, -2.986047247260301E+08, 3.038312617246278E+07,
2461680.500000000, A.D. 2027-Oct-02 00:00:00.0000, 1.900435929397147E+08, -2.920783429309540E+08, 3.025719579971489E+07,
2461687.500000000, A.D. 2027-Oct-09 00:00:00.0000, 1.991791581226470E+08, -2.852206468739506E+08, 3.009694140433794E+07,
2461694.500000000, A.D. 2027-Oct-16 00:00:00.0000, 2.080876602594076E+08, -2.780377717395581E+08, 2.990237142025925E+07,
2461701.500000000, A.D. 2027-Oct-23 00:00:00.0000, 2.167576819159555E+08, -2.705362269226078E+08, 2.967352692886752E+07,
2461708.500000000, A.D. 2027-Oct-30 00:00:00.0000, 2.251779126338513E+08, -2.627229005059853E+08, 2.941048231368528E+07,
2461715.500000000, A.D. 2027-Nov-06 00:00:00.0000, 2.333371599415697E+08, -2.546050621186860E+08, 2.911334611105928E+07,
2461722.500000000, A.D. 2027-Nov-13 00:00:00.0000, 2.412243585640379E+08, -2.461903662144894E+08, 2.878226206778221E+07,
2461729.500000000, A.D. 2027-Nov-20 00:00:00.0000, 2.488285807577106E+08, -2.374868579147863E+08, 2.841740995836747E+07,
2461736.500000000, A.D. 2027-Nov-27 00:00:00.0000, 2.561390494141774E+08, -2.285029784069287E+08, 2.801900625358135E+07,
2461743.500000000, A.D. 2027-Dec-04 00:00:00.0000, 2.631451519302526E+08, -2.192475689379785E+08, 2.758730489763141E+07,
2461750.500000000, A.D. 2027-Dec-11 00:00:00.0000, 2.698364543103477E+08, -2.097298743140301E+08, 2.712259816103680E+07,
2461757.500000000, A.D. 2027-Dec-18 00:00:00.0000, 2.762027157920795E+08, -1.999595461814053E+08, 2.662521751047350E+07,
2461764.500000000, A.D. 2027-Dec-25 00:00:00.0000, 2.822339041674701E+08, -1.899466460245293E+08, 2.609553447656566E+07,
2461771.500000000, A.D. 2028-Jan-01 00:00:00.0000, 2.879202118648141E+08, -1.797016478001356E+08, 2.553396151406512E+07,
$$EOE